ORBCOMM FM37            
1 33064U 08031E   25178.76415613  .00000753  00000+0  12694-3 0  9993
2 33064  48.4407 293.3504 0004634  57.2493 103.1347 14.79797505915613
VESSELSAT 1             
1 37840U 11058C   25178.63391517  .00000321  00000+0  30488-4 0  9997
2 37840  19.9634  30.6725 0013587 301.6626  58.2453 14.11355332707781
ORBCOMM FM109           
1 40086U 14040A   25178.46292489  .00000252  00000+0  90711-4 0  9994
2 40086  47.0044 327.7624 0001141   8.4883 351.6021 14.58187419582560
ORBCOMM FM107           
1 40087U 14040B   25178.69661375  .00000351  00000+0  11173-3 0  9998
2 40087  47.0061 327.6202 0001421 298.2140  61.8602 14.58258876582670
ORBCOMM FM106           
1 40088U 14040C   25179.17858887  .00000435  00000+0  10437-3 0  9994
2 40088  47.0590 146.5647 0015956 118.1748 242.0757 14.69460440585302
ORBCOMM FM111           
1 40089U 14040D   25179.17526633  .00001215  00000+0  15994-3 0  9996
2 40089  47.0034 355.2686 0031092 245.0462 114.7203 14.86341012591861
